1 26866U 01029D   08063.80549901  .00310135 -11545-6  45676-2 0  620
2 26866 002.9448 203.7299 4846970 272.6735 040.5559 06.0263539411307
1 26901U 01039B   08065.55088248  .00006161  00000-0  21105-2 0  472
2 26901 007.4160 319.9875 7152249 018.8301 357.7637 02.43858973 5577
1 27048U 89062L   08064.06970008 +.00001618 +00000-0 +33693-2 0 0172
2 27048 008.4237 275.5997 6634855 127.8051 312.6758 03.0217739707305
1 27298U 02002A   08064.60487807 -.00000078 +00000-0 +10000-3 0 0425
2 27298 000.0239 263.0511 0003955 118.2815 073.1579 01.0027262102240
1 27368U 02003B   08064.33871916 -.00000130 +00000-0 +36409-3 0 0340
2 27368 028.5300 144.1887 7175798 008.5595 359.0487 02.2918154105073
1 27500U 02038B   08065.39207555  .00001181  00000-0  97091-3 0  301
2 27500 017.7313 156.2955 7366389 358.1969 000.1539 02.15799818 4013
1 27667U 91075C   08064.33203224  .00103065  15747-6  15268-2 0  978
2 27667 007.2469 309.5777 5659249 217.2829 085.3044 04.67334137 8388
1 27671U 91075G   08064.70718722 -.00000144 +00000-0 -14949-2 0 0208
2 27671 006.9968 240.0877 5246324 346.9991 003.4392 04.7285893710057
1 27673U 91075J   08065.48264986 -.00000111  00000-0 -13312-2 0  584
2 27673 006.6473 204.7950 6661150 080.3126 343.7897 02.87147648 6119
1 27674U 91075K   08065.47663472  .00003556  00000-0  69468-3 0  101
2 27674 007.3026 197.9067 6305132 085.8957 338.9591 03.59646238 6759
1 27685U 92072M   08063.91908588 +.00001585 +00000-0 +25755-2 0 0888
2 27685 006.5546 192.4886 6467469 143.6735 285.4098 03.2691443908296
1 27811U 03020A   08065.01412336  .00000152  00000-0  10000-3 0  732
2 27811 000.0226 261.3985 0003139 094.6918 211.0997 01.00274627 1752
1 27950U 03043D   08065.27548230 -.00000152  00000-0  00000+0 0  879
2 27950 007.5119 292.6198 7138479 274.8704 014.0502 02.24774199 3645
1 28094U 03053B   08064.60720959 -.00000229 +00000-0 +10000-3 0 0643
2 28094 000.0347 274.8524 0002926 055.5892 140.8828 01.0027000701790
1 28154U 04003A   08064.33645369 +.00000088 +00000-0 +10000-3 0 0852
2 28154 000.0307 301.2564 0002732 047.1811 160.1270 01.0027250401496
1 28393U 04031A   08065.14742486 -.00000283  00000-0  10000-3 0  433
2 28393 000.0180 265.2930 0002430 098.7511 151.2489 01.00272899 1316
1 28470U 04044A   08064.68842468 +.00001262 +00000-0 +55536-4 0 0806
2 28470 097.4173 147.3703 0005986 273.3887 240.6610 15.2369125618508
1 28508U 04053A   08064.84513177 +.00000019 +00000-0 +10000-3 0 0899
2 28508 064.1645 298.1563 0009808 152.0634 229.7260 02.1310352802481
1 28573U 91003N   08065.42285173 -.00000127  00000-0  25194-3 0  416
2 28573 007.1635 312.3613 6827215 021.8359 356.9657 02.64291418 4439
1 28576U 91075N   08063.78874724 -.00000238 +00000-0 -58512-2 0 0589
2 28576 006.7802 269.5219 6603636 321.4152 006.2500 02.8357877006399
1 28786U 05028A   08064.90814216 -.00000363  00000-0  10000-3 0  396
2 28786 000.0085 198.0750 0002595 139.5896 271.7578 01.00269511  943
1 28893U 05043D   08064.70477004 +.00000007 +00000-0 +11135-4 0 0640
2 28893 098.1064 321.2929 0016307 019.7325 340.4503 14.6003159412540
1 28911U 05049A   08064.61386375 -.00000166 +00000-0 +10000-3 0 0405
2 28911 000.0172 264.8137 0003503 055.4718 146.4682 01.0027133500812
1 28912U 05049B   08064.85566638 -.00000003  00000-0  00000+0 0  345
2 28912 000.7558 245.2232 0000784 230.1684 355.8294 01.00269246  814
1 28913U 05049C   08064.20602605 -.00000232 +00000-0 +00000-0 0 0397
2 28913 004.1539 297.9693 7146510 058.8639 351.8333 02.2483639201808
1 28937U 06004A   08064.40925978 -.00000243  00000-0  10000-3 0  383
2 28937 000.0288 276.2725 0003007 075.1686 103.4458 01.00271847  752
1 28938U 06004B   08064.04281214 +.00001262 +00000-0 +38141-3 0 0556
2 28938 028.8796 351.8167 7188727 285.2062 011.3037 02.3937797101767
1 28971U 92047AM  08064.56137511 -.00043745  00000-0 -26156+0 0  891
2 28971 064.2264 157.3867 4235507 082.0340 322.7162 06.32200248 4537
1 29045U 06010A   08065.71046150 -.00000328  00000-0  10000-3 0  277
2 29045 000.0019 250.8549 0002055 077.0080 223.7450 01.00271994  699
1 29274U 06033C   08065.58341566  .00004685  00000-0  27736-2 0  390
2 29274 005.5883 243.8391 7151692 297.7516 008.3877 02.42362429 1347
1 29275U 06033D   08064.62512628  .00000703  00000-0  59631-3 0  343
2 29275 006.0296 247.5252 7247446 285.8237 010.3970 02.30839389 1314
1 29307U 89039N   08064.87872119  .00060045  00000-0  12086+0 0  346
2 29307 064.8992 004.4548 5009641 044.4687 346.2157 05.33315660 3041
1 29398U 06038A   08065.32739212 -.00000291  00000-0  10000-3 0  434
2 29398 000.0340 274.0958 0004390 122.4503 342.6797 01.00270567  548
1 29496U 06043C   08064.64869558 +.00015849 +00000-0 +22937-2 0 0449
2 29496 007.5008 275.8047 6864029 299.5991 009.4941 02.8351170301307
1 29498U 06043E   08065.06156358  .00004672  00000-0  63998-3 0  418
2 29498 007.1094 304.0280 7204740 246.7924 025.8966 02.39529938 1193
1 29531U 90065Y   08061.01332586 -.00000689  00000-0 -64677-3 0  153
2 29531 018.1424 343.8276 7154458 296.6971 008.5361 02.39700061 1902
1 29640U 06053A   08064.61751949 -.00000196 +00000-0 +10000-3 0 0322
2 29640 001.4685 264.2705 0001365 126.5448 080.5025 01.0026683300459
1 30174U 99025UF  08064.60754350 +.00000781 +00000-0 +44721-3 0 0176
2 30174 098.8670 053.2600 0061738 135.1437 225.4745 14.1145235605856
1 30582U 07004C   08065.75000000 -.00000721  00000-0  00000+0 0  212
2 30582 004.7533 308.4897 8699271 006.9855 355.4695 00.50380244  256
1 30797U 07004D   08065.70833333 -.00000352  00000-0  00000+0 0  241
2 30797 005.9279 299.5505 7823840 025.1299 352.2711 01.00286204  304
1 30798U 07004E   08065.79166667 -.00000389  00000-0  00000+0 0  251
2 30798 006.4830 298.4861 7815554 026.3697 358.2389 01.00284601  319
1 31308U 07016C   08063.78375552 +.00003176 +00000-0 +99560-3 0 0214
2 31308 005.4866 268.1615 7267471 060.2698 352.2644 02.2988468200696
1 31309U 07016D   08064.67580866 +.00050739 +00000-0 +10453-1 0 0190
2 31309 005.6067 262.9648 7180935 067.4711 350.4604 02.4142331000705
1 32018U 07036A   08064.31801990 -.00000151 +00000-0 +10000-3 0 0078
2 32018 000.0331 342.4515 0000156 031.3348 168.1716 01.0027223100215
1 32020U 07036C   08064.31161139 +.00007919 +00000-0 +29143-2 0 0133
2 32020 002.2687 059.4711 7267614 349.8709 001.0062 02.2906139900462
1 32271U 07049D   08065.06885323  .00002653  00000-0  14942-1 0   54
2 32271 063.1317 028.8687 7370503 287.8211 008.1451 02.05507529  276
1 32390U 07063D   08064.98296452  .00000161  00000-0  13339-2 0   41
2 32390 005.2361 198.5140 7167086 234.7190 036.2864 02.25613598  155
1 32479U 08003B   08065.02754025 -.00000044  00000-0  10000-3 0    5
2 32479 000.0000 256.4316 0190427 238.8241 226.2844 01.04001016   23
1 32487U 08006A   08064.80665337  .00000061  00000-0  00000+0 0   45
2 32487 000.0209 252.3300 0001708 206.8858 348.1898 01.00977442   22
1 32490U 06006AD  08064.57340976  .00068958  00000-0  11106+0 0   15
2 32490 051.4851 216.6766 4349323 114.5893 296.2509 06.40965910  596
